$$SOE
2460154.500000000, A.D. 2023-Jul-29 00:00:00.0000, -4.131429029076539E+08, 2.219611947898649E+08, 3.135611927908498E+07,
2460161.500000000, A.D. 2023-Aug-05 00:00:00.0000, -4.178310305988118E+08, 2.139137354034951E+08, 3.046370578997153E+07,
2460168.500000000, A.D. 2023-Aug-12 00:00:00.0000, -4.223243315992239E+08, 2.057664861825134E+08, 2.955708486881590E+07,
2460175.500000000, A.D. 2023-Aug-19 00:00:00.0000, -4.266211142652897E+08, 1.975234408909737E+08, 2.863670765603568E+07,
2460182.500000000, A.D. 2023-Aug-26 00:00:00.0000, -4.307197427903515E+08, 1.891886016543574E+08, 2.770302699936601E+07,
2460189.500000000, A.D. 2023-Sep-02 00:00:00.0000, -4.346186363955678E+08, 1.807659795119784E+08, 2.675649750782549E+07,
2460196.500000000, A.D. 2023-Sep-09 00:00:00.0000, -4.383162685788841E+08, 1.722595948924769E+08, 2.579757559940514E+07,
2460203.500000000, A.D. 2023-Sep-16 00:00:00.0000, -4.418111662535725E+08, 1.636734779522738E+08, 2.482671952210199E+07,
2460210.500000000, A.D. 2023-Sep-23 00:00:00.0000, -4.451019083597210E+08, 1.550116690616589E+08, 2.384438933337705E+07,
2460217.500000000, A.D. 2023-Sep-30 00:00:00.0000, -4.481871242881303E+08, 1.462782206269077E+08, 2.285104696635493E+07,
2460224.500000000, A.D. 2023-Oct-07 00:00:00.0000, -4.510654944713737E+08, 1.374771997033695E+08, 2.184715655419547E+07,
2460231.500000000, A.D. 2023-Oct-14 00:00:00.0000, -4.537357521037964E+08, 1.286126880854673E+08, 2.083318464647296E+07,
2460238.500000000, A.D. 2023-Oct-21 00:00:00.0000, -4.561966827609189E+08, 1.196887814755834E+08, 1.980960015244336E+07,
2460245.500000000, A.D. 2023-Oct-28 00:00:00.0000, -4.584471233411347E+08, 1.107095899890883E+08, 1.877687432657153E+07,
2460252.500000000, A.D. 2023-Nov-04 00:00:00.0000, -4.604859615810196E+08, 1.016792392223107E+08, 1.773548084803435E+07,
2460259.500000000, A.D. 2023-Nov-11 00:00:00.0000, -4.623121359685811E+08, 9.260187128217851E+07, 1.668589592895667E+07,
2460266.500000000, A.D. 2023-Nov-18 00:00:00.0000, -4.639246358359833E+08, 8.348164571201462E+07, 1.562859842607239E+07,
2460273.500000000, A.D. 2023-Nov-25 00:00:00.0000, -4.653225015597494E+08, 7.432274033451606E+07, 1.456406995101739E+07,
2460280.500000000, A.D. 2023-Dec-02 00:00:00.0000, -4.665048248413200E+08, 6.512935199913415E+07, 1.349279497573191E+07,
2460287.500000000, A.D. 2023-Dec-09 00:00:00.0000, -4.674707489913319E+08, 5.590569717359987E+07, 1.241526092091822E+07,
2460294.500000000, A.D. 2023-Dec-16 00:00:00.0000, -4.682194689309498E+08, 4.665601239113945E+07, 1.133195820202583E+07,
2460301.500000000, A.D. 2023-Dec-23 00:00:00.0000, -4.687502305618093E+08, 3.738455523985122E+07, 1.024338025673001E+07,
2460308.500000000, A.D. 2023-Dec-30 00:00:00.0000, -4.690623308440452E+08, 2.809560694178542E+07, 9.150023762262382E+06,
2460315.500000000, A.D. 2024-Jan-06 00:00:00.0000, -4.691551203551163E+08, 1.879347415823696E+07, 8.052389011849477E+06,
2460322.500000000, A.D. 2024-Jan-13 00:00:00.0000, -4.690280051582391E+08, 9.482488211801909E+06, 6.950980011206495E+06,
2460329.500000000, A.D. 2024-Jan-20 00:00:00.0000, -4.686804467574700E+08, 1.670048073187517E+05, 5.846304434643801E+06,
2460336.500000000, A.D. 2024-Jan-27 00:00:00.0000, -4.681119621694788E+08, -9.148595099724356E+06, 4.738873679749767E+06,
2460343.500000000, A.D. 2024-Feb-03 00:00:00.0000, -4.673221245442378E+08, -1.845990423911506E+07, 3.629202981829694E+06,
2460350.500000000, A.D. 2024-Feb-10 00:00:00.0000, -4.663105640614079E+08, -2.776248805893213E+07, 2.517811538292785E+06,
2460357.500000000, A.D. 2024-Feb-17 00:00:00.0000, -4.650769689664483E+08, -3.705188384890823E+07, 1.405222630433237E+06,
2460364.500000000, A.D. 2024-Feb-24 00:00:00.0000, -4.636210867122400E+08, -4.632359994104603E+07, 2.919637400876228E+05,
2460371.500000000, A.D. 2024-Mar-02 00:00:00.0000, -4.619427251783833E+08, -5.557311502228671E+07, -8.214333445874229E+05,
2460378.500000000, A.D. 2024-Mar-09 00:00:00.0000, -4.600417538309731E+08, -6.479587762467711E+07, -1.934432452489305E+06,
2460385.500000000, A.D. 2024-Mar-16 00:00:00.0000, -4.579181044291322E+08, -7.398730559845492E+07, -3.046493002618752E+06,
2460392.500000000, A.D. 2024-Mar-23 00:00:00.0000, -4.555717713830913E+08, -8.314278446183544E+07, -4.157069927046981E+06,
2460399.500000000, A.D. 2024-Mar-30 00:00:00.0000, -4.530028140060623E+08, -9.225766465784436E+07, -5.265613340843294E+06,
2460406.500000000, A.D. 2024-Apr-06 00:00:00.0000, -4.502113604063497E+08, -1.013272610901064E+08, -6.371568258178964E+06,
2460413.500000000, A.D. 2024-Apr-13 00:00:00.0000, -4.471976094715517E+08, -1.103468541047488E+08, -7.474374612395637E+06,
2460420.500000000, A.D. 2024-Apr-20 00:00:00.0000, -4.439618318979249E+08, -1.193116892451204E+08, -8.573467274170138E+06,
2460427.500000000, A.D. 2024-Apr-27 00:00:00.0000, -4.405043717824485E+08, -1.282169763458115E+08, -9.668275974793181E+06,
2460434.500000000, A.D. 2024-May-04 00:00:00.0000, -4.368256486922000E+08, -1.370578886756054E+08, -1.075822520061177E+07,
2460441.500000000, A.D. 2024-May-11 00:00:00.0000, -4.329261599766186E+08, -1.458295622369497E+08, -1.184273408937899E+07,
2460448.500000000, A.D. 2024-May-18 00:00:00.0000, -4.288064832444759E+08, -1.545270952054491E+08, -1.292121633477463E+07,
2460455.500000000, A.D. 2024-May-25 00:00:00.0000, -4.244672789840085E+08, -1.631455475215522E+08, -1.399308010242682E+07,
2460462.500000000, A.D. 2024-Jun-01 00:00:00.0000, -4.199092932690677E+08, -1.716799406972480E+08, -1.505772796810639E+07,
2460469.500000000, A.D. 2024-Jun-08 00:00:00.0000, -4.151333603073217E+08, -1.801252578665576E+08, -1.611455690306819E+07,
2460476.500000000, A.D. 2024-Jun-15 00:00:00.0000, -4.101404044330114E+08, -1.884764435409725E+08, -1.716295829914223E+07,
2460483.500000000, A.D. 2024-Jun-22 00:00:00.0000, -4.049314425508216E+08, -1.967284019014703E+08, -1.820231784585650E+07,
2460490.500000000, A.D. 2024-Jun-29 00:00:00.0000, -3.995075891537226E+08, -2.048759954560091E+08, -1.923201521447524E+07,
2460497.500000000, A.D. 2024-Jul-06 00:00:00.0000, -3.938700612725121E+08, -2.129140465430170E+08, -2.025142399445963E+07,
2460504.500000000, A.D. 2024-Jul-13 00:00:00.0000, -3.880201814108455E+08, -2.208373388655904E+08, -2.125991183129123E+07,
2460511.500000000, A.D. 2024-Jul-20 00:00:00.0000, -3.819593804524171E+08, -2.286406179160316E+08, -2.225684049047658E+07,
2460518.500000000, A.D. 2024-Jul-27 00:00:00.0000, -3.756892011960945E+08, -2.363185912599005E+08, -2.324156586701791E+07,
2460525.500000000, A.D. 2024-Aug-03 00:00:00.0000, -3.692113022464482E+08, -2.438659290660064E+08, -2.421343799746606E+07,
2460532.500000000, A.D. 2024-Aug-10 00:00:00.0000, -3.625274620952253E+08, -2.512772648989424E+08, -2.517180109184651E+07,
2460539.500000000, A.D. 2024-Aug-17 00:00:00.0000, -3.556395833478280E+08, -2.585471967643505E+08, -2.611599358981970E+07,
2460546.500000000, A.D. 2024-Aug-24 00:00:00.0000, -3.485496970675681E+08, -2.656702884407194E+08, -2.704534824722175E+07,
2460553.500000000, A.D. 2024-Aug-31 00:00:00.0000, -3.412599671213483E+08, -2.726410711705239E+08, -2.795919227029642E+07,
2460560.500000000, A.D. 2024-Sep-07 00:00:00.0000, -3.337726941587206E+08, -2.794540455957785E+08, -2.885684752234508E+07,
2460567.500000000, A.D. 2024-Sep-14 00:00:00.0000, -3.260903191343659E+08, -2.861036829544569E+08, -2.973763073065834E+07,
2460574.500000000, A.D. 2024-Sep-21 00:00:00.0000, -3.182154283963039E+08, -2.925844251396245E+08, -3.060085347552243E+07,
2460581.500000000, A.D. 2024-Sep-28 00:00:00.0000, -3.101507608210649E+08, -2.988906868668509E+08, -3.144582218257861E+07,
2460588.500000000, A.D. 2024-Oct-05 00:00:00.0000, -3.018992133225079E+08, -3.050168599686003E+08, -3.227183845783781E+07,
2460595.500000000, A.D. 2024-Oct-12 00:00:00.0000, -2.934638450920936E+08, -3.109573168546398E+08, -3.307819949151255E+07,
2460602.500000000, A.D. 2024-Oct-19 00:00:00.0000, -2.848478823163645E+08, -3.167064134264323E+08, -3.386419839457725E+07,
2460609.500000000, A.D. 2024-Oct-26 00:00:00.0000, -2.760547233956895E+08, -3.222584922638037E+08, -3.462912453276432E+07,
2460616.500000000, A.D. 2024-Nov-02 00:00:00.0000, -2.670879443961542E+08, -3.276078862503802E+08, -3.537226389599817E+07,
2460623.500000000, A.D. 2024-Nov-09 00:00:00.0000, -2.579513046257919E+08, -3.327489226366453E+08, -3.609289951290090E+07,
2460630.500000000, A.D. 2024-Nov-16 00:00:00.0000, -2.486487522958716E+08, -3.376759275606074E+08, -3.679031191527174E+07,
2460637.500000000, A.D. 2024-Nov-23 00:00:00.0000, -2.391844302052228E+08, -3.423832310963958E+08, -3.746377966345873E+07,
2460644.500000000, A.D. 2024-Nov-30 00:00:00.0000, -2.295626812221119E+08, -3.468651728940649E+08, -3.811257995775938E+07,
2460651.500000000, A.D. 2024-Dec-07 00:00:00.0000, -2.197880531248930E+08, -3.511161080108250E+08, -3.873598934251767E+07,
2460658.500000000, A.D. 2024-Dec-14 00:00:00.0000, -2.098653034682961E+08, -3.551304117302636E+08, -3.933328434224740E+07,
2460665.500000000, A.D. 2024-Dec-21 00:00:00.0000, -1.997994067689475E+08, -3.589024846304661E+08, -3.990374192099766E+07,
2460672.500000000, A.D. 2024-Dec-28 00:00:00.0000, -1.895955620100227E+08, -3.624267608897378E+08, -4.044664019111574E+07,
2460679.500000000, A.D. 2025-Jan-04 00:00:00.0000, -1.792591978389550E+08, -3.656977174761374E+08, -4.096125941836278E+07,
2460686.500000000, A.D. 2025-Jan-11 00:00:00.0000, -1.687959772483211E+08, -3.687098825817072E+08, -4.144688302331962E+07,
2460693.500000000, A.D. 2025-Jan-18 00:00:00.0000, -1.582118026220656E+08, -3.714578442387828E+08, -4.190279857236888E+07,
2460700.500000000, A.D. 2025-Jan-25 00:00:00.0000, -1.475128208650296E+08, -3.739362596099066E+08, -4.232829882148620E+07,
2460707.500000000, A.D. 2025-Feb-01 00:00:00.0000, -1.367054283838424E+08, -3.761398649972208E+08, -4.272268283474115E+07,
2460714.500000000, A.D. 2025-Feb-08 00:00:00.0000, -1.257962758148185E+08, -3.780634865666004E+08, -4.308525718337995E+07,
$$EOE